CCSDS_OMM_VERS = 2.0
CREATION_DATE  = 
ORIGINATOR     = 

OBJECT_NAME    = ERS-1
OBJECT_ID      = 1991-050A
CENTER_NAME    = EARTH
REF_FRAME      = TEME
TIME_SYSTEM    = UTC
MEAN_ELEMENT_THEORY = SGP/SGP4

EPOCH          = 2026-03-12T01:27:24.988896
MEAN_MOTION    = 14.39451323
ECCENTRICITY   = .0031752
INCLINATION    = 98.7879
RA_OF_ASC_NODE = 89.3548
ARG_OF_PERICENTER = 193.3487
MEAN_ANOMALY   = 166.6863

EPHEMERIS_TYPE = 0
CLASSIFICATION_TYPE = U
NORAD_CAT_ID   = 21574
ELEMENT_SET_NO = 999
REV_AT_EPOCH   = 81607
BSTAR          = .12761E-3
MEAN_MOTION_DOT = .353E-5
MEAN_MOTION_DDOT = 0

CCSDS_OMM_VERS = 2.0
CREATION_DATE  = 
ORIGINATOR     = 

OBJECT_NAME    = ARIANE 40 R/B
OBJECT_ID      = 1991-050F
CENTER_NAME    = EARTH
REF_FRAME      = TEME
TIME_SYSTEM    = UTC
MEAN_ELEMENT_THEORY = SGP/SGP4

EPOCH          = 2026-03-12T02:32:39.899040
MEAN_MOTION    = 14.42895392
ECCENTRICITY   = .0004245
INCLINATION    = 98.2007
RA_OF_ASC_NODE = 123.2517
ARG_OF_PERICENTER = 75.8736
MEAN_ANOMALY   = 284.2926

EPHEMERIS_TYPE = 0
CLASSIFICATION_TYPE = U
NORAD_CAT_ID   = 21610
ELEMENT_SET_NO = 999
REV_AT_EPOCH   = 81934
BSTAR          = .10671E-3
MEAN_MOTION_DOT = .315E-5
MEAN_MOTION_DDOT = 0

CCSDS_OMM_VERS = 2.0
CREATION_DATE  = 
ORIGINATOR     = 

OBJECT_NAME    = INTERCOSMOS 25
OBJECT_ID      = 1991-086A
CENTER_NAME    = EARTH
REF_FRAME      = TEME
TIME_SYSTEM    = UTC
MEAN_ELEMENT_THEORY = SGP/SGP4

EPOCH          = 2026-03-12T03:13:25.582368
MEAN_MOTION    = 12.12007728
ECCENTRICITY   = .148693
INCLINATION    = 82.6045
RA_OF_ASC_NODE = 308.5308
ARG_OF_PERICENTER = 111.6671
MEAN_ANOMALY   = 264.9080

EPHEMERIS_TYPE = 0
CLASSIFICATION_TYPE = U
NORAD_CAT_ID   = 21819
ELEMENT_SET_NO = 999
REV_AT_EPOCH   = 49698
BSTAR          = .37731E-3
MEAN_MOTION_DOT = .1961E-4
MEAN_MOTION_DDOT = 0

CCSDS_OMM_VERS = 2.0
CREATION_DATE  = 
ORIGINATOR     = 

OBJECT_NAME    = SL-8 R/B
OBJECT_ID      = 1992-008B
CENTER_NAME    = EARTH
REF_FRAME      = TEME
TIME_SYSTEM    = UTC
MEAN_ELEMENT_THEORY = SGP/SGP4

EPOCH          = 2026-03-12T01:25:34.003776
MEAN_MOTION    = 13.75969808
ECCENTRICITY   = .0035635
INCLINATION    = 82.9222
RA_OF_ASC_NODE = 266.0151
ARG_OF_PERICENTER = 126.9170
MEAN_ANOMALY   = 347.0294

EPHEMERIS_TYPE = 0
CLASSIFICATION_TYPE = U
NORAD_CAT_ID   = 21876
ELEMENT_SET_NO = 999
REV_AT_EPOCH   = 70974
BSTAR          = -.32391E-5
MEAN_MOTION_DOT = .12E-6
MEAN_MOTION_DDOT = 0

CCSDS_OMM_VERS = 2.0
CREATION_DATE  = 
ORIGINATOR     = 

OBJECT_NAME    = SL-8 R/B
OBJECT_ID      = 1992-020B
CENTER_NAME    = EARTH
REF_FRAME      = TEME
TIME_SYSTEM    = UTC
MEAN_ELEMENT_THEORY = SGP/SGP4

EPOCH          = 2026-03-12T03:58:27.934176
MEAN_MOTION    = 13.75549837
ECCENTRICITY   = .0027629
INCLINATION    = 82.9332
RA_OF_ASC_NODE = 151.9235
ARG_OF_PERICENTER = 291.5911
MEAN_ANOMALY   = 130.7440

EPHEMERIS_TYPE = 0
CLASSIFICATION_TYPE = U
NORAD_CAT_ID   = 21938
ELEMENT_SET_NO = 999
REV_AT_EPOCH   = 70147
BSTAR          = .57174E-4
MEAN_MOTION_DOT = .7E-6
MEAN_MOTION_DDOT = 0

CCSDS_OMM_VERS = 2.0
CREATION_DATE  = 
ORIGINATOR     = 

OBJECT_NAME    = USA 81
OBJECT_ID      = 1992-023A
CENTER_NAME    = EARTH
REF_FRAME      = TEME
TIME_SYSTEM    = UTC
MEAN_ELEMENT_THEORY = SGP/SGP4

EPOCH          = 2026-03-12T04:10:06.195648
MEAN_MOTION    = 14.32368870
ECCENTRICITY   = .0002397
INCLINATION    = 85.0080
RA_OF_ASC_NODE = 130.0083
ARG_OF_PERICENTER = 75.9632
MEAN_ANOMALY   = 284.1827

EPHEMERIS_TYPE = 0
CLASSIFICATION_TYPE = U
NORAD_CAT_ID   = 21949
ELEMENT_SET_NO = 999
REV_AT_EPOCH   = 9514
BSTAR          = .60559E-4
MEAN_MOTION_DOT = .184E-5
MEAN_MOTION_DDOT = 0

CCSDS_OMM_VERS = 2.0
CREATION_DATE  = 
ORIGINATOR     = 

OBJECT_NAME    = COSMOS 2219
OBJECT_ID      = 1992-076A
CENTER_NAME    = EARTH
REF_FRAME      = TEME
TIME_SYSTEM    = UTC
MEAN_ELEMENT_THEORY = SGP/SGP4

EPOCH          = 2026-03-12T03:19:09.729120
MEAN_MOTION    = 14.14093296
ECCENTRICITY   = .0018856
INCLINATION    = 71.0639
RA_OF_ASC_NODE = 12.9490
ARG_OF_PERICENTER = 203.6949
MEAN_ANOMALY   = 156.3308

EPHEMERIS_TYPE = 0
CLASSIFICATION_TYPE = U
NORAD_CAT_ID   = 22219
ELEMENT_SET_NO = 999
REV_AT_EPOCH   = 71872
BSTAR          = .57932E-4
MEAN_MOTION_DOT = .63E-6
MEAN_MOTION_DDOT = 0

CCSDS_OMM_VERS = 2.0
CREATION_DATE  = 
ORIGINATOR     = 

OBJECT_NAME    = SL-16 R/B
OBJECT_ID      = 1992-076B
CENTER_NAME    = EARTH
REF_FRAME      = TEME
TIME_SYSTEM    = UTC
MEAN_ELEMENT_THEORY = SGP/SGP4

EPOCH          = 2026-03-11T18:05:43.293120
MEAN_MOTION    = 14.16859282
ECCENTRICITY   = .00104678
INCLINATION    = 71.0009
RA_OF_ASC_NODE = 184.0257
ARG_OF_PERICENTER = 92.6138
MEAN_ANOMALY   = 19.5545

EPHEMERIS_TYPE = 0
CLASSIFICATION_TYPE = U
NORAD_CAT_ID   = 22220
ELEMENT_SET_NO = 999
REV_AT_EPOCH   = 72212
BSTAR          = -.52500166E-4
MEAN_MOTION_DOT = -.153E-5
MEAN_MOTION_DDOT = 0

CCSDS_OMM_VERS = 2.0
CREATION_DATE  = 
ORIGINATOR     = 

OBJECT_NAME    = COSMOS 2221
OBJECT_ID      = 1992-080A
CENTER_NAME    = EARTH
REF_FRAME      = TEME
TIME_SYSTEM    = UTC
MEAN_ELEMENT_THEORY = SGP/SGP4

EPOCH          = 2026-03-12T01:04:44.682240
MEAN_MOTION    = 14.96210282
ECCENTRICITY   = .0014249
INCLINATION    = 82.5012
RA_OF_ASC_NODE = 276.8245
ARG_OF_PERICENTER = 179.0275
MEAN_ANOMALY   = 181.0977

EPHEMERIS_TYPE = 0
CLASSIFICATION_TYPE = U
NORAD_CAT_ID   = 22236
ELEMENT_SET_NO = 999
REV_AT_EPOCH   = 78114
BSTAR          = .18855E-3
MEAN_MOTION_DOT = .2155E-4
MEAN_MOTION_DDOT = 0

CCSDS_OMM_VERS = 2.0
CREATION_DATE  = 
ORIGINATOR     = 

OBJECT_NAME    = SL-16 R/B
OBJECT_ID      = 1992-093B
CENTER_NAME    = EARTH
REF_FRAME      = TEME
TIME_SYSTEM    = UTC
MEAN_ELEMENT_THEORY = SGP/SGP4

EPOCH          = 2026-03-12T03:24:53.447328
MEAN_MOTION    = 14.15447285
ECCENTRICITY   = .0006383
INCLINATION    = 71.0242
RA_OF_ASC_NODE = 359.1175
ARG_OF_PERICENTER = 291.1249
MEAN_ANOMALY   = 68.9192

EPHEMERIS_TYPE = 0
CLASSIFICATION_TYPE = U
NORAD_CAT_ID   = 22285
ELEMENT_SET_NO = 999
REV_AT_EPOCH   = 71350
BSTAR          = -.51942E-4
MEAN_MOTION_DOT = -.149E-5
MEAN_MOTION_DDOT = 0

CCSDS_OMM_VERS = 2.0
CREATION_DATE  = 
ORIGINATOR     = 

OBJECT_NAME    = COSMOS 2228
OBJECT_ID      = 1992-094A
CENTER_NAME    = EARTH
REF_FRAME      = TEME
TIME_SYSTEM    = UTC
MEAN_ELEMENT_THEORY = SGP/SGP4

EPOCH          = 2026-03-12T03:02:17.674080
MEAN_MOTION    = 14.97204483
ECCENTRICITY   = .0016697
INCLINATION    = 82.5159
RA_OF_ASC_NODE = 234.9767
ARG_OF_PERICENTER = 295.9095
MEAN_ANOMALY   = 64.0407

EPHEMERIS_TYPE = 0
CLASSIFICATION_TYPE = U
NORAD_CAT_ID   = 22286
ELEMENT_SET_NO = 999
REV_AT_EPOCH   = 77642
BSTAR          = .26983E-3
MEAN_MOTION_DOT = .3154E-4
MEAN_MOTION_DDOT = 0

CCSDS_OMM_VERS = 2.0
CREATION_DATE  = 
ORIGINATOR     = 

OBJECT_NAME    = SL-16 R/B
OBJECT_ID      = 1993-016B
CENTER_NAME    = EARTH
REF_FRAME      = TEME
TIME_SYSTEM    = UTC
MEAN_ELEMENT_THEORY = SGP/SGP4

EPOCH          = 2026-03-12T02:41:40.203168
MEAN_MOTION    = 14.15309273
ECCENTRICITY   = .0011997
INCLINATION    = 71.0078
RA_OF_ASC_NODE = 210.0926
ARG_OF_PERICENTER = 310.9159
MEAN_ANOMALY   = 49.0924

EPHEMERIS_TYPE = 0
CLASSIFICATION_TYPE = U
NORAD_CAT_ID   = 22566
ELEMENT_SET_NO = 999
REV_AT_EPOCH   = 70251
BSTAR          = .25548E-4
MEAN_MOTION_DOT = .2E-7
MEAN_MOTION_DDOT = 0

