ERS-1                   
1 21574U 91050A   26071.06070589  .00000353  00000+0  12761-3 0  9995
2 21574  98.7879  89.3548 0031752 193.3487 166.6863 14.39451323816072
ARIANE 40 R/B           
1 21610U 91050F   26071.10601735  .00000315  00000+0  10671-3 0  9990
2 21610  98.2007 123.2517 0004245  75.8736 284.2926 14.42895392819345
INTERCOSMOS 25          
1 21819U 91086A   26071.13432387  .00001961  00000+0  37731-3 0  9992
2 21819  82.6045 308.5308 1486930 111.6671 264.9080 12.12007728496984
SL-8 R/B                
1 21876U 92008B   26071.05942134  .00000012  00000+0 -32391-5 0  9993
2 21876  82.9222 266.0151 0035635 126.9170 347.0294 13.75969808709742
SL-8 R/B                
1 21938U 92020B   26071.16560109  .00000070  00000+0  57174-4 0  9994
2 21938  82.9332 151.9235 0027629 291.5911 130.7440 13.75549837701472
USA 81                  
1 21949U 92023A   26071.17368282  .00000184  00000+0  60559-4 0  9995
2 21949  85.0080 130.0083 0002397  75.9632 284.1827 14.32368870 95149
COSMOS 2219             
1 22219U 92076A   26071.13830705  .00000063  00000+0  57932-4 0  9991
2 22219  71.0639  12.9490 0018856 203.6949 156.3308 14.14093296718720
SL-16 R/B               
1 22220U 92076B   26070.75397330 -.00000153  00000+0 -52500-4 0  9990
2 22220  71.0009 184.0257 0010467  92.6138  19.5545 14.16859282722120
COSMOS 2221             
1 22236U 92080A   26071.04496160  .00002155  00000+0  18855-3 0  9992
2 22236  82.5012 276.8245 0014249 179.0275 181.0977 14.96210282781149
SL-16 R/B               
1 22285U 92093B   26071.14228527 -.00000149  00000+0 -51942-4 0  9999
2 22285  71.0242 359.1175 0006383 291.1249  68.9192 14.15447285713508
COSMOS 2228             
1 22286U 92094A   26071.12659345  .00003154  00000+0  26983-3 0  9998
2 22286  82.5159 234.9767 0016697 295.9095  64.0407 14.97204483776427
SL-16 R/B               
1 22566U 93016B   26071.11227087  .00000002  00000+0  25548-4 0  9993
2 22566  71.0078 210.0926 0011997 310.9159  49.0924 14.15309273702519
